{
  "type": "FeatureCollection",
  "features": [
    {
      "type": "Feature",
      "properties": {
        "norad_id": 40545,
        "name": "GSAT0204 (GALILEO 8)",
        "group": "gnss",
        "lat": -50.12834339839218,
        "lon": -142.15831781102793,
        "alt_km": 23210.52815430717,
        "timestamp": "2025-12-24T11:33:00.257786+00:00",
        "meta_object_name": "GSAT0204 (GALILEO 8)",
        "meta_object_id": "2015-017B",
        "meta_epoch": "2025-12-20T13:26:28.826304",
        "meta_mean_motion": 1.70475697,
        "meta_eccentricity": 0.0006133,
        "meta_inclination": 56.8522,
        "meta_ra_of_asc_node": 346.4847,
        "meta_arg_of_pericenter": 266.5447,
        "meta_mean_anomaly": 93.3948,
        "meta_ephemeris_type": 0,
        "meta_classification_type": "U",
        "meta_norad_cat_id": 40545,
        "meta_element_set_no": 999,
        "meta_rev_at_epoch": 2920,
        "meta_bstar": 0,
        "meta_mean_motion_dot": -7e-07,
        "meta_mean_motion_ddot": 0,
        "tle_line1": "1 40545U 15017B   25354.56005586 -.00000070  00000+0  00000+0 0  9992",
        "tle_line2": "2 40545  56.8522 346.4847 0006133 266.5447  93.3948  1.70475697 29206"
      },
      "geometry": {
        "type": "Point",
        "coordinates": [
          -142.15831781102793,
          -50.12834339839218
        ]
      }
    },
    {
      "type": "Feature",
      "properties": {
        "norad_id": 40549,
        "name": "BEIDOU-3S IGSO-1S (C31)",
        "group": "gnss",
        "lat": 42.865027509114874,
        "lon": -10.180075731325289,
        "alt_km": 35875.26224400652,
        "timestamp": "2025-12-24T11:33:00.257799+00:00",
        "meta_object_name": "BEIDOU-3S IGSO-1S (C31)",
        "meta_object_id": "2015-019A",
        "meta_epoch": "2025-12-18T19:55:38.829792",
        "meta_mean_motion": 1.00292047,
        "meta_eccentricity": 0.0036331,
        "meta_inclination": 49.5404,
        "meta_ra_of_asc_node": 297.6395,
        "meta_arg_of_pericenter": 194.0028,
        "meta_mean_anomaly": 349.3621,
        "meta_ephemeris_type": 0,
        "meta_classification_type": "U",
        "meta_norad_cat_id": 40549,
        "meta_element_set_no": 999,
        "meta_rev_at_epoch": 3926,
        "meta_bstar": 0,
        "meta_mean_motion_dot": -1.83e-06,
        "meta_mean_motion_ddot": 0,
        "tle_line1": "1 40549U 15019A   25352.83031053 -.00000183  00000+0  00000+0 0  9999",
        "tle_line2": "2 40549  49.5404 297.6395 0036331 194.0028 349.3621  1.00292047 39264"
      },
      "geometry": {
        "type": "Point",
        "coordinates": [
          -10.180075731325289,
          42.865027509114874
        ]
      }
    },
    {
      "type": "Feature",
      "properties": {
        "norad_id": 40730,
        "name": "GPS BIIF-10 (PRN 08)",
        "group": "gnss",
        "lat": -9.076924387548209,
        "lon": 100.91810666741,
        "alt_km": 20468.508377515496,
        "timestamp": "2025-12-24T11:33:00.257814+00:00",
        "meta_object_name": "GPS BIIF-10 (PRN 08)",
        "meta_object_id": "2015-033A",
        "meta_epoch": "2025-12-23T05:17:42.404352",
        "meta_mean_motion": 2.00565183,
        "meta_eccentricity": 0.01115799,
        "meta_inclination": 54.1216,
        "meta_ra_of_asc_node": 274.3416,
        "meta_arg_of_pericenter": 27.0753,
        "meta_mean_anomaly": 333.5521,
        "meta_ephemeris_type": 0,
        "meta_classification_type": "U",
        "meta_norad_cat_id": 40730,
        "meta_element_set_no": 999,
        "meta_rev_at_epoch": 7646,
        "meta_bstar": 0,
        "meta_mean_motion_dot": -1.3e-07,
        "meta_mean_motion_ddot": 0,
        "tle_line1": "1 40730U 15033A   25357.22062968 -.00000013  00000+0  00000+0 0  9996",
        "tle_line2": "2 40730  54.1216 274.3416 0111579  27.0753 333.5521  2.00565183 76465"
      },
      "geometry": {
        "type": "Point",
        "coordinates": [
          100.91810666741,
          -9.076924387548209
        ]
      }
    },
    {
      "type": "Feature",
      "properties": {
        "norad_id": 40748,
        "name": "BEIDOU-3S M2S (C58)",
        "group": "gnss",
        "lat": 34.37836254917256,
        "lon": 99.46546107356174,
        "alt_km": 21547.21472883643,
        "timestamp": "2025-12-24T11:33:00.257826+00:00",
        "meta_object_name": "BEIDOU-3S M2S (C58)",
        "meta_object_id": "2015-037A",
        "meta_epoch": "2025-12-23T17:46:18.118272",
        "meta_mean_motion": 1.86229556,
        "meta_eccentricity": 0.0011856,
        "meta_inclination": 55.029,
        "meta_ra_of_asc_node": 308.0865,
        "meta_arg_of_pericenter": 270.917,
        "meta_mean_anomaly": 88.9514,
        "meta_ephemeris_type": 0,
        "meta_classification_type": "U",
        "meta_norad_cat_id": 40748,
        "meta_element_set_no": 999,
        "meta_rev_at_epoch": 7085,
        "meta_bstar": 0,
        "meta_mean_motion_dot": -5.3e-07,
        "meta_mean_motion_ddot": 0,
        "tle_line1": "1 40748U 15037A   25357.74048748 -.00000053  00000+0  00000+0 0  9990",
        "tle_line2": "2 40748  55.0290 308.0865 0011856 270.9170  88.9514  1.86229556 70852"
      },
      "geometry": {
        "type": "Point",
        "coordinates": [
          99.46546107356174,
          34.37836254917256
        ]
      }
    },
    {
      "type": "Feature",
      "properties": {
        "norad_id": 40749,
        "name": "BEIDOU-3S M1S (C57)",
        "group": "gnss",
        "lat": -13.590814275970732,
        "lon": -61.70063745357643,
        "alt_km": 21518.00528043463,
        "timestamp": "2025-12-24T11:33:00.257838+00:00",
        "meta_object_name": "BEIDOU-3S M1S (C57)",
        "meta_object_id": "2015-037B",
        "meta_epoch": "2025-12-23T23:15:38.644992",
        "meta_mean_motion": 1.86253915,
        "meta_eccentricity": 0.0003694,
        "meta_inclination": 55.0251,
        "meta_ra_of_asc_node": 308.0679,
        "meta_arg_of_pericenter": 2.4172,
        "meta_mean_anomaly": 357.5894,
        "meta_ephemeris_type": 0,
        "meta_classification_type": "U",
        "meta_norad_cat_id": 40749,
        "meta_element_set_no": 999,
        "meta_rev_at_epoch": 7086,
        "meta_bstar": 0,
        "meta_mean_motion_dot": -5.3e-07,
        "meta_mean_motion_ddot": 0,
        "tle_line1": "1 40749U 15037B   25357.96919728 -.00000053  00000+0  00000+0 0  9990",
        "tle_line2": "2 40749  55.0251 308.0679 0003694   2.4172 357.5894  1.86253915 70867"
      },
      "geometry": {
        "type": "Point",
        "coordinates": [
          -61.70063745357643,
          -13.590814275970732
        ]
      }
    },
    {
      "type": "Feature",
      "properties": {
        "norad_id": 40889,
        "name": "GSAT0205 (GALILEO 9)",
        "group": "gnss",
        "lat": 23.076465280845735,
        "lon": -116.18668688634665,
        "alt_km": 23201.601347346266,
        "timestamp": "2025-12-24T11:33:00.257851+00:00",
        "meta_object_name": "GSAT0205 (GALILEO 9)",
        "meta_object_id": "2015-045A",
        "meta_epoch": "2025-12-23T06:16:38.782272",
        "meta_mean_motion": 1.70473104,
        "meta_eccentricity": 0.00062228,
        "meta_inclination": 55.0001,
        "meta_ra_of_asc_node": 226.4673,
        "meta_arg_of_pericenter": 42.5636,
        "meta_mean_anomaly": 317.5856,
        "meta_ephemeris_type": 0,
        "meta_classification_type": "U",
        "meta_norad_cat_id": 40889,
        "meta_element_set_no": 999,
        "meta_rev_at_epoch": 6401,
        "meta_bstar": 0,
        "meta_mean_motion_dot": 7.3e-07,
        "meta_mean_motion_ddot": 0,
        "tle_line1": "1 40889U 15045A   25357.26155998  .00000073  00000+0  00000+0 0  9999",
        "tle_line2": "2 40889  55.0001 226.4673 0006222  42.5636 317.5856  1.70473104 64013"
      },
      "geometry": {
        "type": "Point",
        "coordinates": [
          -116.18668688634665,
          23.076465280845735
        ]
      }
    },
    {
      "type": "Feature",
      "properties": {
        "norad_id": 40890,
        "name": "GSAT0206 (GALILEO 10)",
        "group": "gnss",
        "lat": -51.628311783055786,
        "lon": 108.66237583043674,
        "alt_km": 23240.021243907806,
        "timestamp": "2025-12-24T11:33:00.257880+00:00",
        "meta_object_name": "GSAT0206 (GALILEO 10)",
        "meta_object_id": "2015-045B",
        "meta_epoch": "2025-12-23T11:34:23.439072",
        "meta_mean_motion": 1.70473137,
        "meta_eccentricity": 0.00045197,
        "meta_inclination": 54.999,
        "meta_ra_of_asc_node": 226.4563,
        "meta_arg_of_pericenter": 47.4687,
        "meta_mean_anomaly": 312.6693,
        "meta_ephemeris_type": 0,
        "meta_classification_type": "U",
        "meta_norad_cat_id": 40890,
        "meta_element_set_no": 999,
        "meta_rev_at_epoch": 6404,
        "meta_bstar": 0,
        "meta_mean_motion_dot": 7.2e-07,
        "meta_mean_motion_ddot": 0,
        "tle_line1": "1 40890U 15045B   25357.48221573  .00000072  00000+0  00000+0 0  9997",
        "tle_line2": "2 40890  54.9990 226.4563 0004519  47.4687 312.6693  1.70473137 64049"
      },
      "geometry": {
        "type": "Point",
        "coordinates": [
          108.66237583043674,
          -51.628311783055786
        ]
      }
    }
  ]
}